NORAD_CAT_ID,OBJECT_NAME,OBJECT_TYPE,EPOCH,MEAN_MOTION,ECCENTRICITY,INCLINATION,RA_OF_ASC_NODE,ARG_OF_PERICENTER,MEAN_ANOMALY,BSTAR,MEAN_MOTION_DOT,MEAN_MOTION_DDOT,TLE_LINE0,TLE_LINE1,TLE_LINE2,SEMIMAJOR_AXIS,PERIOD,APOGEE,PERIGEE,DECAYED
53266.0,STARLINK-4058,PAYLOAD,2023-12-06 21:36:22,15.0883818,0.0002367,53.2176,292.2586,89.4317,270.6946,-0.00035125,-5.874e-05,0.0,0 STARLINK-4058,1 53266U 22086AA  23340.90026033 -.00005874  00000-0 -35125-3 0  9990,2 53266  53.2176 292.2586 0002367  89.4317 270.6946 15.08838180 76708,6917.886,95.438,541.388,538.113,0.0
53266.0,STARLINK-4058,PAYLOAD,2023-12-07 03:57:55,15.08840268,0.0002211,53.2173,291.0691,89.4782,270.6463,-0.0001111,-2.056e-05,0.0,0 STARLINK-4058,1 53266U 22086AA  23341.16522006 -.00002056  00000-0 -11110-3 0  9997,2 53266  53.2173 291.0691 0002211  89.4782 270.6463 15.08840268 76741,6917.88,95.438,541.274,538.215,0.0
53266.0,STARLINK-4058,PAYLOAD,2023-12-08 02:13:19,15.0884016,0.0002181,53.2172,286.9054,90.0861,270.0382,0.00014534,2.026e-05,0.0,0 STARLINK-4058,1 53266U 22086AA  23342.09258311  .00002026  00000-0  14534-3 0  9993,2 53266  53.2172 286.9054 0002181  90.0861 270.0382 15.08840160 76709,6917.88,95.438,541.254,538.236,0.0
53266.0,STARLINK-4058,PAYLOAD,2023-12-08 06:59:27,15.08851477,0.0002444,53.2176,286.0131,97.1594,262.9676,-6.5061e-05,-1.324e-05,0.0,0 STARLINK-4058,1 53266U 22086AA  23342.29129624 -.00001324  00000-0 -65061-4 0  9993,2 53266  53.2176 286.0131 0002444  97.1594 262.9676 15.08851477 76735,6917.845,95.437,541.401,538.02,0.0
53266.0,STARLINK-4058,PAYLOAD,2023-12-09 03:39:29,15.08842115,0.000202,53.2162,282.1461,93.1078,267.0146,0.00012463,1.696e-05,0.0,0 STARLINK-4058,1 53266U 22086AA  23343.15242254  .00001696  00000-0  12463-3 0  9991,2 53266  53.2162 282.1461 0002020  93.1078 267.0146 15.08842115 76867,6917.874,95.437,541.136,538.342,0.0
53266.0,STARLINK-4058,PAYLOAD,2023-12-09 05:14:52,15.0884418,0.000205,53.2164,281.8487,95.1294,264.9932,0.00015053,2.109e-05,0.0,0 STARLINK-4058,1 53266U 22086AA  23343.21866139  .00002109  00000-0  15053-3 0  9990,2 53266  53.2164 281.8487 0002050  95.1294 264.9932 15.08844180 77053,6917.868,95.437,541.151,538.314,0.0
53266.0,STARLINK-4058,PAYLOAD,2023-12-10 05:05:39,15.08841404,0.0002041,53.2168,277.3881,97.7619,262.3605,2.7218e-05,1.45e-06,0.0,0 STARLINK-4058,1 53266U 22086AA  23344.21226250  .00000145  00000-0  27218-4 0  9990,2 53266  53.2168 277.3881 0002041  97.7619 262.3605 15.08841404 77026,6917.876,95.437,541.153,538.329,0.0
53266.0,STARLINK-4058,PAYLOAD,2023-12-11 01:45:40,15.08841158,0.000206,53.2177,273.5153,91.0842,269.0386,6.9372e-05,8.16e-06,0.0,0 STARLINK-4058,1 53266U 22086AA  23345.07338493  .00000816  00000-0  69372-4 0  9990,2 53266  53.2177 273.5153 0002060  91.0842 269.0386 15.08841158 77332,6917.877,95.437,541.167,538.317,0.0
53266.0,STARLINK-4058,PAYLOAD,2023-12-11 22:25:40,15.08845255,0.0002045,53.217,269.657,96.0664,264.0561,8.3643e-05,1.043e-05,0.0,0 STARLINK-4058,1 53266U 22086AA  23345.93450093  .00001043  00000-0  83643-4 0  9996,2 53266  53.2170 269.6570 0002045  96.0664 264.0561 15.08845255 77460,6917.864,95.437,541.144,538.315,0.0
53266.0,STARLINK-4058,PAYLOAD,2023-12-12 01:36:27,15.08844058,0.0002075,53.2172,269.0638,89.8344,270.2886,0.00016195,2.29e-05,0.0,0 STARLINK-4058,1 53266U 22086AA  23346.06698088  .00002290  00000-0  16195-3 0  9991,2 53266  53.2172 269.0638 0002075  89.8344 270.2886 15.08844058 77301,6917.868,95.437,541.168,538.298,0.0
53266.0,STARLINK-4058,PAYLOAD,2023-12-12 22:16:28,15.08843236,0.0002208,53.2188,265.206,99.9486,260.1756,7.989e-05,9.84e-06,0.0,0 STARLINK-4058,1 53266U 22086AA  23346.92810497  .00000984  00000-0  79890-4 0  9996,2 53266  53.2188 265.2060 0002208  99.9486 260.1756 15.08843236 77617,6917.87,95.437,541.263,538.208,0.0
53266.0,STARLINK-4058,PAYLOAD,2023-12-13 01:27:14,15.08843718,0.0002186,53.2189,264.6088,100.7769,259.3469,7.287e-05,8.72e-06,0.0,0 STARLINK-4058,1 53266U 22086AA  23347.06058380  .00000872  00000-0  72870-4 0  9994,2 53266  53.2189 264.6088 0002186 100.7769 259.3469 15.08843718 77459,6917.869,95.437,541.246,538.222,0.0
53266.0,STARLINK-4058,PAYLOAD,2023-12-13 22:07:14,15.08844987,0.0002006,53.2175,260.737,104.8086,255.3128,2.8837e-05,1.71e-06,0.0,0 STARLINK-4058,1 53266U 22086AA  23347.92170124  .00000171  00000-0  28837-4 0  9996,2 53266  53.2175 260.7370 0002006 104.8086 255.3128 15.08844987 77764,6917.865,95.437,541.118,538.342,0.0
53266.0,STARLINK-4058,PAYLOAD,2023-12-14 01:18:00,15.08848762,0.0002084,53.2176,260.1413,105.4518,254.6704,6.104e-05,6.84e-06,0.0,0 STARLINK-4058,1 53266U 22086AA  23348.05417753  .00000684  00000-0  61040-4 0  9995,2 53266  53.2176 260.1413 0002084 105.4518 254.6704 15.08848762 77789,6917.854,95.437,541.16,538.277,0.0
53266.0,STARLINK-4058,PAYLOAD,2023-12-14 21:58:02,15.08840558,0.0002072,53.2171,256.2794,109.9528,250.1688,2.1356e-05,5.2e-07,0.0,0 STARLINK-4058,1 53266U 22086AA  23348.91530409  .00000052  00000-0  21356-4 0  9999,2 53266  53.2171 256.2794 0002072 109.9528 250.1688 15.08840558 77911,6917.879,95.438,541.177,538.31,0.0
53266.0,STARLINK-4058,PAYLOAD,2023-12-15 01:08:48,15.08841754,0.0001971,53.2171,255.6842,101.5653,258.5561,5.6127e-05,6.05e-06,0.0,0 STARLINK-4058,1 53266U 22086AA  23349.04778312  .00000605  00000-0  56127-4 0  9999,2 53266  53.2171 255.6842 0001971 101.5653 258.5561 15.08841754 77755,6917.875,95.437,541.104,538.377,0.0
53266.0,STARLINK-4058,PAYLOAD,2023-12-15 21:48:49,15.08834678,0.0002218,53.2169,251.8222,136.1468,223.97,-7.5192e-05,-1.485e-05,0.0,0 STARLINK-4058,1 53266U 22086AA  23349.90891191 -.00001485  00000-0 -75192-4 0  9997,2 53266  53.2169 251.8222 0002218 136.1468 223.9700 15.08834678 78068,6917.897,95.438,541.296,538.227,0.0
53266.0,STARLINK-4058,PAYLOAD,2023-12-16 00:59:36,15.08831435,0.0001808,53.2157,251.2248,102.1267,257.9928,-0.00013107,-2.373e-05,0.0,0 STARLINK-4058,1 53266U 22086AA  23350.04139013 -.00002373  00000-0 -13107-3 0  9996,2 53266  53.2157 251.2248 0001808 102.1267 257.9928 15.08831435 77900,6917.907,95.438,541.022,538.521,0.0
53266.0,STARLINK-4058,PAYLOAD,2023-12-16 21:39:36,15.08844499,0.0001672,53.2146,247.3592,114.1807,245.936,0.0001137,1.522e-05,0.0,0 STARLINK-4058,1 53266U 22086AA  23350.90250663  .00001522  00000-0  11370-3 0  9999,2 53266  53.2146 247.3592 0001672 114.1807 245.9360 15.08844499 78214,6917.867,95.437,540.888,538.575,0.0
53266.0,STARLINK-4058,PAYLOAD,2023-12-17 00:50:22,15.08849565,0.0001691,53.2148,246.7644,97.1878,262.9306,0.00022419,3.283e-05,0.0,0 STARLINK-4058,1 53266U 22086AA  23351.03498591  .00003283  00000-0  22419-3 0  9990,2 53266  53.2148 246.7644 0001691  97.1878 262.9306 15.08849565 78056,6917.851,95.437,540.886,538.546,0.0
53266.0,STARLINK-4058,PAYLOAD,2023-12-17 21:30:24,15.08844892,0.0001874,53.2157,242.8945,79.6915,280.4288,0.00024572,3.625e-05,0.0,0 STARLINK-4058,1 53266U 22086AA  23351.89611188  .00003625  00000-0  24572-3 0  9995,2 53266  53.2157 242.8945 0001874  79.6915 280.4288 15.08844892 78363,6917.865,95.437,541.027,538.434,0.0
53266.0,STARLINK-4058,PAYLOAD,2023-12-17 23:05:47,15.08842505,0.0001927,53.2163,242.5949,75.5913,284.5292,0.00041358,6.301e-05,0.0,0 STARLINK-4058,1 53266U 22086AA  23351.96235205  .00006301  00000-0  41358-3 0  9990,2 53266  53.2163 242.5949 0001927  75.5913 284.5292 15.08842505 78193,6917.873,95.437,541.071,538.405,0.0
53266.0,STARLINK-4058,PAYLOAD,2023-12-18 21:21:10,15.08841259,0.0001574,53.2146,238.4378,103.8335,256.2832,5.9272e-07,-2.79e-06,0.0,0 STARLINK-4058,1 53266U 22086AA  23352.88970879 -.00000279  00000-0  59272-6 0  9991,2 53266  53.2146 238.4378 0001574 103.8335 256.2832 15.08841259 78512,6917.877,95.437,540.83,538.653,0.0
53266.0,STARLINK-4058,PAYLOAD,2023-12-19 22:47:21,15.08845592,0.0001628,53.2153,233.6722,103.2421,256.8752,-9.8184e-06,-4.44e-06,0.0,0 STARLINK-4058,1 53266U 22086AA  23353.94954978 -.00000444  00000-0 -98184-5 0  9990,2 53266  53.2153 233.6722 0001628 103.2421 256.8752 15.08845592 78498,6917.863,95.437,540.855,538.602,0.0
53266.0,STARLINK-4058,PAYLOAD,2023-12-20 19:27:22,15.08840625,0.0001611,53.2154,229.8089,99.2272,260.8903,0.00017035,2.424e-05,0.0,0 STARLINK-4058,1 53266U 22086AA  23354.81067394  .00002424  00000-0  17035-3 0  9996,2 53266  53.2154 229.8089 0001611  99.2272 260.8903 15.08840625 78622,6917.878,95.438,540.858,538.629,0.0
53266.0,STARLINK-4058,PAYLOAD,2023-12-20 22:38:08,15.08843601,0.0001615,53.2154,229.215,96.2267,263.8909,0.00019672,2.844e-05,0.0,0 STARLINK-4058,1 53266U 22086AA  23354.94315267  .00002844  00000-0  19672-3 0  9990,2 53266  53.2154 229.2150 0001615  96.2267 263.8909 15.08843601 78828,6917.869,95.437,540.852,538.617,0.0
53266.0,STARLINK-4058,PAYLOAD,2023-12-21 22:28:55,15.08839199,0.0001618,53.2154,224.755,112.6448,247.4715,5.1102e-05,5.25e-06,0.0,0 STARLINK-4058,1 53266U 22086AA  23355.93675419  .00000525  00000-0  51102-4 0  9997,2 53266  53.2154 224.7550 0001618 112.6448 247.4715 15.08839199 78975,6917.883,95.438,540.867,538.629,0.0
53266.0,STARLINK-4058,PAYLOAD,2023-12-22 19:08:53,15.08873024,0.0001276,53.2148,220.8911,111.7055,248.4073,0.00032798,4.94e-05,0.0,0 STARLINK-4058,1 53266U 22086AA  23356.79784481  .00004940  00000-0  32798-3 0  9996,2 53266  53.2148 220.8911 0001276 111.7055 248.4073 15.08873024 78928,6917.779,95.435,540.527,538.762,0.0
53266.0,STARLINK-4058,PAYLOAD,2023-12-22 20:44:18,15.088383,0.0001172,53.2148,220.5935,85.4495,274.6631,-0.0002162,-3.727e-05,0.0,0 STARLINK-4058,1 53266U 22086AA  23356.86409795 -.00003727  00000-0 -21620-3 0  9992,2 53266  53.2148 220.5935 0001172  85.4495 274.6631 15.08838300 79112,6917.886,95.438,540.561,538.94,0.0
53266.0,STARLINK-4058,PAYLOAD,2023-12-23 18:59:42,15.08826334,0.0001211,53.2147,216.4301,89.3231,270.79,-0.00025844,-4.397e-05,0.0,0 STARLINK-4058,1 53266U 22086AA  23357.79146910 -.00004397  00000-0 -25844-3 0  9998,2 53266  53.2147 216.4301 0001211  89.3231 270.7900 15.08826334 79072,6917.922,95.438,540.625,538.949,0.0
